ONEWEB-0403             
1 50483U 21132Q   25354.80786769  .00000054  00000+0  10415-3 0  9991
2 50483  87.9177  10.8768 0001750  95.7155 264.4176 13.18685940198087
ONEWEB-0404             
1 50484U 21132R   25354.87334827  .00000308  00000+0  83261-3 0  9994
2 50484  87.8847  56.5795 0001854 113.7237 246.4086 13.11413399192326
ONEWEB-0405             
1 50485U 21132S   25354.29157784  .00000061  00000+0  12080-3 0  9993
2 50485  87.9177  10.9633 0002098  93.6335 266.5037 13.18686286198414
ONEWEB-0406             
1 50486U 21132T   25354.81281438 -.00000039  00000+0 -13231-3 0  9992
2 50486  87.9177  10.8843 0001540 110.6945 249.4352 13.18686548198113
ONEWEB-0407             
1 50487U 21132U   25354.57858485  .00000018  00000+0  12341-4 0  9995
2 50487  87.9175  10.9149 0001844  87.4086 272.7257 13.18686075198024
ONEWEB-0409             
1 50488U 21132V   25354.71905834  .00000251  00000+0  67318-3 0  9995
2 50488  87.8864  56.5802 0001649 115.1256 245.0044 13.11412608192193
ONEWEB-0412             
1 50489U 21132W   25354.56703191  .00000030  00000+0  42164-4 0  9999
2 50489  87.9178  10.9304 0002125  90.6620 269.4755 13.18686734198113
ONEWEB-0413             
1 50490U 21132X   25354.79961840 -.00000013  00000+0 -64584-4 0  9996
2 50490  87.9166  10.8957 0002048  88.2126 271.9240 13.18684915198085
